0 HYLAS 1
1 37237U 10065A   13281.37753064 -.00000244  00000-0  10000-3 0  6435
2 37237 000.0960 060.8856 0000985 119.0982 299.6098 01.00273638 10536
0 HYLAS 1
1 37237U 10065A   13283.18156282 -.00000249  00000-0  10000-3 0  6441
2 37237 000.0996 061.3454 0000983 116.8803 232.6051 01.00272970 10556
0 HYLAS 1
1 37237U 10065A   13284.19098916 -.00000253  00000-0  10000-3 0  6458
2 37237 000.1017 061.6270 0000974 116.2137 237.3804 01.00272607 10560
0 HYLAS 1
1 37237U 10065A   13285.29816924 -.00000256  00000-0  10000-3 0  6461
2 37237 000.1038 061.9974 0000935 118.8348 274.0647 01.00272196 10573
0 HYLAS 1
1 37237U 10065A   13287.08423641 -.00000259  00000-0  10000-3 0  6474
2 37237 000.1080 062.2004 0001010 120.7950 196.6497 01.00271815 10595
0 HYLAS 1
1 37237U 10065A   13288.18477421 -.00000259  00000-0  10000-3 0  6482
2 37237 000.1103 062.4704 0001010 121.2949 233.1561 01.00271476 10608
0 HYLAS 1
1 37237U 10065A   13289.19259947 -.00000258  00000-0  10000-3 0  6495
2 37237 000.1122 063.1387 0001160 114.5006 243.0942 01.00271254 10617
0 HYLAS 1
1 37237U 10065A   13291.85803433 -.00000253  00000-0  10000-3 0  6503
2 37237 000.1158 063.5393 0001132 131.9636 107.4033 01.00270539 10639
0 HYLAS 1
1 37237U 10065A   13293.18800313 -.00000250  00000-0  10000-3 0  6513
2 37237 000.1191 063.9403 0001029 131.4123 227.6487 01.00270245 10657
0 HYLAS 1
1 37237U 10065A   13294.19639039 -.00000248  00000-0  10000-3 0  6528
2 37237 000.1211 064.4191 0000931 128.3695 234.2215 01.00270012 10666
0 HYLAS 1
1 37237U 10065A   13295.24146894 -.00000247  00000-0  10000-3 0  6537
2 37237 000.1228 064.6420 0000896 126.6547 252.9649 01.00269735 10677
